{
  "type": "FeatureCollection",
  "features": [
    {
      "type": "Feature",
      "properties": {
        "norad_id": 58647,
        "name": "TIANMU-1 13",
        "group": "weather",
        "lat": -70.26531730328327,
        "lon": 22.453793859732336,
        "alt_km": 495.581154972323,
        "timestamp": "2025-12-07T14:37:04.853374+00:00",
        "meta_object_name": "TIANMU-1 13",
        "meta_object_id": "2023-205C",
        "meta_epoch": "2025-12-06T21:36:08.684928",
        "meta_mean_motion": 15.24415462,
        "meta_eccentricity": 0.00061568,
        "meta_inclination": 97.3618,
        "meta_ra_of_asc_node": 0.6322,
        "meta_arg_of_pericenter": 293.7889,
        "meta_mean_anomaly": 66.2703,
        "meta_ephemeris_type": 0,
        "meta_classification_type": "U",
        "meta_norad_cat_id": 58647,
        "meta_element_set_no": 999,
        "meta_rev_at_epoch": 10818,
        "meta_bstar": 0.00039582035,
        "meta_mean_motion_dot": 9.644e-05,
        "meta_mean_motion_ddot": 0,
        "tle_line1": "1 58647U 23205C   25340.90010052  .00009644  00000+0  39582-3 0  9995",
        "tle_line2": "2 58647  97.3618   0.6322 0006156 293.7889  66.2703 15.24415462108189"
      },
      "geometry": {
        "type": "Point",
        "coordinates": [
          22.453793859732336,
          -70.26531730328327
        ]
      }
    },
    {
      "type": "Feature",
      "properties": {
        "norad_id": 58648,
        "name": "TIANMU-1 14",
        "group": "weather",
        "lat": 19.545802384736533,
        "lon": -1.9460981130172643,
        "alt_km": 492.2606569017007,
        "timestamp": "2025-12-07T14:37:04.853384+00:00",
        "meta_object_name": "TIANMU-1 14",
        "meta_object_id": "2023-205D",
        "meta_epoch": "2025-12-06T22:46:40.381536",
        "meta_mean_motion": 15.2440006,
        "meta_eccentricity": 0.00070564,
        "meta_inclination": 97.3551,
        "meta_ra_of_asc_node": 0.0345,
        "meta_arg_of_pericenter": 298.3236,
        "meta_mean_anomaly": 61.7289,
        "meta_ephemeris_type": 0,
        "meta_classification_type": "U",
        "meta_norad_cat_id": 58648,
        "meta_element_set_no": 999,
        "meta_rev_at_epoch": 10819,
        "meta_bstar": 0.00040849569,
        "meta_mean_motion_dot": 9.953e-05,
        "meta_mean_motion_ddot": 0,
        "tle_line1": "1 58648U 23205D   25340.94907849  .00009953  00000+0  40850-3 0  9992",
        "tle_line2": "2 58648  97.3551   0.0345 0007056 298.3236  61.7289 15.24400060108190"
      },
      "geometry": {
        "type": "Point",
        "coordinates": [
          -1.9460981130172643,
          19.545802384736533
        ]
      }
    },
    {
      "type": "Feature",
      "properties": {
        "norad_id": 58660,
        "name": "TIANMU-1 19",
        "group": "weather",
        "lat": -33.17506705460603,
        "lon": -92.24341994025522,
        "alt_km": 487.6556300424809,
        "timestamp": "2025-12-07T14:37:04.853396+00:00",
        "meta_object_name": "TIANMU-1 19",
        "meta_object_id": "2023-208A",
        "meta_epoch": "2025-12-06T21:57:59.050656",
        "meta_mean_motion": 15.27690246,
        "meta_eccentricity": 0.00040515,
        "meta_inclination": 97.4398,
        "meta_ra_of_asc_node": 91.9651,
        "meta_arg_of_pericenter": 279.4167,
        "meta_mean_anomaly": 80.6614,
        "meta_ephemeris_type": 0,
        "meta_classification_type": "U",
        "meta_norad_cat_id": 58660,
        "meta_element_set_no": 999,
        "meta_rev_at_epoch": 10793,
        "meta_bstar": 0.00052873414,
        "meta_mean_motion_dot": 0.00014249,
        "meta_mean_motion_ddot": 0,
        "tle_line1": "1 58660U 23208A   25340.91526679  .00014249  00000+0  52873-3 0  9996",
        "tle_line2": "2 58660  97.4398  91.9651 0004051 279.4167  80.6614 15.27690246107931"
      },
      "geometry": {
        "type": "Point",
        "coordinates": [
          -92.24341994025522,
          -33.17506705460603
        ]
      }
    },
    {
      "type": "Feature",
      "properties": {
        "norad_id": 58661,
        "name": "TIANMU-1 20",
        "group": "weather",
        "lat": -81.4076159416917,
        "lon": -146.67753060605276,
        "alt_km": 482.4227574530032,
        "timestamp": "2025-12-07T14:37:04.853407+00:00",
        "meta_object_name": "TIANMU-1 20",
        "meta_object_id": "2023-208B",
        "meta_epoch": "2025-12-06T20:10:49.409760",
        "meta_mean_motion": 15.28880457,
        "meta_eccentricity": 0.00063625,
        "meta_inclination": 97.4334,
        "meta_ra_of_asc_node": 92.3327,
        "meta_arg_of_pericenter": 290.8605,
        "meta_mean_anomaly": 69.1953,
        "meta_ephemeris_type": 0,
        "meta_classification_type": "U",
        "meta_norad_cat_id": 58661,
        "meta_element_set_no": 999,
        "meta_rev_at_epoch": 10799,
        "meta_bstar": 0.00052498833,
        "meta_mean_motion_dot": 0.00014677,
        "meta_mean_motion_ddot": 0,
        "tle_line1": "1 58661U 23208B   25340.84084965  .00014677  00000+0  52499-3 0  9995",
        "tle_line2": "2 58661  97.4334  92.3327 0006362 290.8605  69.1953 15.28880457107998"
      },
      "geometry": {
        "type": "Point",
        "coordinates": [
          -146.67753060605276,
          -81.4076159416917
        ]
      }
    },
    {
      "type": "Feature",
      "properties": {
        "norad_id": 58662,
        "name": "TIANMU-1 21",
        "group": "weather",
        "lat": -43.91354681251858,
        "lon": -92.24057906174015,
        "alt_km": 476.263156893845,
        "timestamp": "2025-12-07T14:37:04.853417+00:00",
        "meta_object_name": "TIANMU-1 21",
        "meta_object_id": "2023-208C",
        "meta_epoch": "2025-12-06T20:23:25.648224",
        "meta_mean_motion": 15.31363218,
        "meta_eccentricity": 0.00059126,
        "meta_inclination": 97.4382,
        "meta_ra_of_asc_node": 94.2236,
        "meta_arg_of_pericenter": 284.9182,
        "meta_mean_anomaly": 75.1404,
        "meta_ephemeris_type": 0,
        "meta_classification_type": "U",
        "meta_norad_cat_id": 58662,
        "meta_element_set_no": 999,
        "meta_rev_at_epoch": 10809,
        "meta_bstar": 0.00056896793,
        "meta_mean_motion_dot": 0.00017184,
        "meta_mean_motion_ddot": 0,
        "tle_line1": "1 58662U 23208C   25340.84960241  .00017184  00000+0  56897-3 0  9998",
        "tle_line2": "2 58662  97.4382  94.2236 0005912 284.9182  75.1404 15.31363218108091"
      },
      "geometry": {
        "type": "Point",
        "coordinates": [
          -92.24057906174015,
          -43.91354681251858
        ]
      }
    },
    {
      "type": "Feature",
      "properties": {
        "norad_id": 58663,
        "name": "TIANMU-1 22",
        "group": "weather",
        "lat": -38.74646979962558,
        "lon": -93.30010397750216,
        "alt_km": 490.02643063944106,
        "timestamp": "2025-12-07T14:37:04.853427+00:00",
        "meta_object_name": "TIANMU-1 22",
        "meta_object_id": "2023-208D",
        "meta_epoch": "2025-12-06T20:22:01.429824",
        "meta_mean_motion": 15.27455057,
        "meta_eccentricity": 0.00028984,
        "meta_inclination": 97.4391,
        "meta_ra_of_asc_node": 91.9603,
        "meta_arg_of_pericenter": 315.7848,
        "meta_mean_anomaly": 44.3159,
        "meta_ephemeris_type": 0,
        "meta_classification_type": "U",
        "meta_norad_cat_id": 58663,
        "meta_element_set_no": 999,
        "meta_rev_at_epoch": 10793,
        "meta_bstar": 0.0005214938,
        "meta_mean_motion_dot": 0.0001395,
        "meta_mean_motion_ddot": 0,
        "tle_line1": "1 58663U 23208D   25340.84862766  .00013950  00000+0  52149-3 0  9995",
        "tle_line2": "2 58663  97.4391  91.9603 0002898 315.7848  44.3159 15.27455057107931"
      },
      "geometry": {
        "type": "Point",
        "coordinates": [
          -93.30010397750216,
          -38.74646979962558
        ]
      }
    },
    {
      "type": "Feature",
      "properties": {
        "norad_id": 58700,
        "name": "TIANMU-1 15",
        "group": "weather",
        "lat": 41.673889779672756,
        "lon": 156.39664953359684,
        "alt_km": 488.2624383646171,
        "timestamp": "2025-12-07T14:37:04.853437+00:00",
        "meta_object_name": "TIANMU-1 15",
        "meta_object_id": "2024-004A",
        "meta_epoch": "2025-12-06T22:40:54.435072",
        "meta_mean_motion": 15.24562995,
        "meta_eccentricity": 0.0005525,
        "meta_inclination": 97.4625,
        "meta_ra_of_asc_node": 162.4358,
        "meta_arg_of_pericenter": 322.0891,
        "meta_mean_anomaly": 37.9956,
        "meta_ephemeris_type": 0,
        "meta_classification_type": "U",
        "meta_norad_cat_id": 58700,
        "meta_element_set_no": 999,
        "meta_rev_at_epoch": 10646,
        "meta_bstar": 0.00042365598,
        "meta_mean_motion_dot": 0.00010372,
        "meta_mean_motion_ddot": 0,
        "tle_line1": "1 58700U 24004A   25340.94507448  .00010372  00000+0  42366-3 0  9991",
        "tle_line2": "2 58700  97.4625 162.4358 0005525 322.0891  37.9956 15.24562995106460"
      },
      "geometry": {
        "type": "Point",
        "coordinates": [
          156.39664953359684,
          41.673889779672756
        ]
      }
    }
  ]
}